start=new Date('2023-01-09T00:00:00.000Z').valueOf();
sats=[{"SITE":"AFWTR","NORAD_CAT_ID":"53688","APOAPSIS":"564.225","ARG_OF_PERICENTER":"59.7293","OBJECT_TYPE":"PAYLOAD","MEAN_MOTION_DOT":"0.00005944","MEAN_MOTION":"15.01260519","COUNTRY_CODE":"US","REF_FRAME":"TEME","TIME_SYSTEM":"UTC","PERIAPSIS":"561.796","FILE":"3736235","GP_ID":"222469953","OBJECT_NAME":"STARLINK-4571","BSTAR":"0.00046699000000","PERIOD":"95.919","ECCENTRICITY":"0.00017500","LAUNCH_DATE":"2022-08-31","TLE_LINE2":"2 53688  97.6531 251.5194 0001750  59.7293 300.4104 15.01260519 19729","SEMIMAJOR_AXIS":"6941.145","DECAY_DATE":null,"CLASSIFICATION_TYPE":"U","MEAN_ELEMENT_THEORY":"SGP4","RA_OF_ASC_NODE":"251.5194","RCS_SIZE":"LARGE","MEAN_MOTION_DDOT":"0.0000000000000","CENTER_NAME":"EARTH","REV_AT_EPOCH":"1972","INCLINATION":"97.6531","EPOCH":"2023-01-08T04:00:35.536608","EPHEMERIS_TYPE":"0","MEAN_ANOMALY":"300.4104","TLE_LINE1":"1 53688U 22105AS  23008.16707797  .00005944  00000-0  46699-3 0  9996","ELEMENT_SET_NO":"999","OBJECT_ID":"2022-105AS"},{"BSTAR":"0.00055575000000","FILE":"3736460","GP_ID":"222501228","OBJECT_NAME":"STARLINK-4562","TLE_LINE2":"2 53689  97.6523 252.2409 0001611  69.2685 290.8712 15.01268696 19838","LAUNCH_DATE":"2022-08-31","PERIOD":"95.919","ECCENTRICITY":"0.00016110","DECAY_DATE":null,"SEMIMAJOR_AXIS":"6941.120","CLASSIFICATION_TYPE":"U","MEAN_ELEMENT_THEORY":"SGP4","MEAN_MOTION_DDOT":"0.0000000000000","CENTER_NAME":"EARTH","RA_OF_ASC_NODE":"252.2409","RCS_SIZE":"LARGE","INCLINATION":"97.6523","REV_AT_EPOCH":"1983","EPOCH":"2023-01-08T21:39:01.917792","EPHEMERIS_TYPE":"0","MEAN_ANOMALY":"290.8712","TLE_LINE1":"1 53689U 22105AT  23008.90210553  .00007088  00000-0  55575-3 0  9992","ELEMENT_SET_NO":"999","OBJECT_ID":"2022-105AT","SITE":"AFWTR","APOAPSIS":"564.103","NORAD_CAT_ID":"53689","OBJECT_TYPE":"PAYLOAD","MEAN_MOTION_DOT":"0.00007088","ARG_OF_PERICENTER":"69.2685","MEAN_MOTION":"15.01268696","COUNTRY_CODE":"US","REF_FRAME":"TEME","PERIAPSIS":"561.867","TIME_SYSTEM":"UTC"},{"TLE_LINE2":"2 53690  97.6547 251.9769 0001898 100.9392 259.2046 15.01271859 19795","LAUNCH_DATE":"2022-08-31","ECCENTRICITY":"0.00018980","PERIOD":"95.919","BSTAR":"0.00054722000000","FILE":"3736460","GP_ID":"222501458","OBJECT_NAME":"STARLINK-4570","CENTER_NAME":"EARTH","MEAN_MOTION_DDOT":"0.0000000000000","RCS_SIZE":"LARGE","RA_OF_ASC_NODE":"251.9769","SEMIMAJOR_AXIS":"6941.110","DECAY_DATE":null,"MEAN_ELEMENT_THEORY":"SGP4","CLASSIFICATION_TYPE":"U","EPOCH":"2023-01-08T15:09:46.729440","INCLINATION":"97.6547","REV_AT_EPOCH":"1979","TLE_LINE1":"1 53690U 22105AU  23008.63179085  .00006979  00000-0  54722-3 0  9999","ELEMENT_SET_NO":"999","OBJECT_ID":"2022-105AU","EPHEMERIS_TYPE":"0","MEAN_ANOMALY":"259.2046","APOAPSIS":"564.293","NORAD_CAT_ID":"53690","MEAN_MOTION_DOT":"0.00006979","OBJECT_TYPE":"PAYLOAD","ARG_OF_PERICENTER":"100.9392","SITE":"AFWTR","MEAN_MOTION":"15.01271859","COUNTRY_CODE":"US","PERIAPSIS":"561.658","TIME_SYSTEM":"UTC","REF_FRAME":"TEME"},{"MEAN_MOTION":"15.01266507","NORAD_CAT_ID":"53691","APOAPSIS":"564.286","ARG_OF_PERICENTER":"87.4532","OBJECT_TYPE":"PAYLOAD","MEAN_MOTION_DOT":"0.00004649","SITE":"AFWTR","TIME_SYSTEM":"UTC","PERIAPSIS":"561.698","REF_FRAME":"TEME","COUNTRY_CODE":"US","RA_OF_ASC_NODE":"251.9803","RCS_SIZE":"LARGE","MEAN_MOTION_DDOT":"0.0000000000000","CENTER_NAME":"EARTH","DECAY_DATE":null,"SEMIMAJOR_AXIS":"6941.127","CLASSIFICATION_TYPE":"U","MEAN_ELEMENT_THEORY":"SGP4","ECCENTRICITY":"0.00018640","PERIOD":"95.919","TLE_LINE2":"2 53691  97.6552 251.9803 0001864  87.4532 272.6906 15.01266507 19797","LAUNCH_DATE":"2022-08-31","GP_ID":"222500310","FILE":"3736460","OBJECT_NAME":"STARLINK-4560","BSTAR":"0.00036622000000","TLE_LINE1":"1 53691U 22105AV  23008.63204453  .00004649  00000-0  36622-3 0  9999","ELEMENT_SET_NO":"999","OBJECT_ID":"2022-105AV","EPHEMERIS_TYPE":"0","MEAN_ANOMALY":"272.6906","EPOCH":"2023-01-08T15:10:08.647392","REV_AT_EPOCH":"1979","INCLINATION":"97.6552"},{"TIME_SYSTEM":"UTC","PERIAPSIS":"561.534","REF_FRAME":"TEME","COUNTRY_CODE":"US","MEAN_MOTION":"15.01247980","ARG_OF_PERICENTER":"44.4530","OBJECT_TYPE":"PAYLOAD","MEAN_MOTION_DOT":"0.00003227","NORAD_CAT_ID":"53692","APOAPSIS":"564.564","SITE":"AFWTR","ELEMENT_SET_NO":"999","OBJECT_ID":"2022-105AW","TLE_LINE1":"1 53692U 22105AW  23008.62994051  .00003227  00000-0  25576-3 0  9996","MEAN_ANOMALY":"315.6869","EPHEMERIS_TYPE":"0","EPOCH":"2023-01-08T15:07:06.860064","REV_AT_EPOCH":"1979","INCLINATION":"97.6547","RA_OF_ASC_NODE":"251.9748","RCS_SIZE":"LARGE","MEAN_MOTION_DDOT":"0.0000000000000","CENTER_NAME":"EARTH","MEAN_ELEMENT_THEORY":"SGP4","CLASSIFICATION_TYPE":"U","DECAY_DATE":null,"SEMIMAJOR_AXIS":"6941.184","ECCENTRICITY":"0.00021830","PERIOD":"95.920","TLE_LINE2":"2 53692  97.6547 251.9748 0002183  44.4530 315.6869 15.01247980 19796","LAUNCH_DATE":"2022-08-31","OBJECT_NAME":"STARLINK-4572","GP_ID":"222500540","FILE":"3736460","BSTAR":"0.00025576000000"},{"COUNTRY_CODE":"US","REF_FRAME":"TEME","PERIAPSIS":"561.406","TIME_SYSTEM":"UTC","SITE":"AFWTR","MEAN_MOTION_DOT":"0.00006885","OBJECT_TYPE":"PAYLOAD","ARG_OF_PERICENTER":"38.2549","APOAPSIS":"564.599","NORAD_CAT_ID":"53693","MEAN_MOTION":"15.01262997","INCLINATION":"97.6550","REV_AT_EPOCH":"1975","EPOCH":"2023-01-08T08:40:31.789056","MEAN_ANOMALY":"321.8838","EPHEMERIS_TYPE":"0","ELEMENT_SET_NO":"999","OBJECT_ID":"2022-105AX","TLE_LINE1":"1 53693U 22105AX  23008.36147904  .00006885  00000-0  54007-3 0  9999","BSTAR":"0.00054007000000","OBJECT_NAME":"STARLINK-4566","GP_ID":"222470183","FILE":"3736235","TLE_LINE2":"2 53693  97.6550 251.7131 0002300  38.2549 321.8838 15.01262997 19753","LAUNCH_DATE":"2022-08-31","ECCENTRICITY":"0.00023000","PERIOD":"95.919","CLASSIFICATION_TYPE":"U","MEAN_ELEMENT_THEORY":"SGP4","DECAY_DATE":null,"SEMIMAJOR_AXIS":"6941.138","CENTER_NAME":"EARTH","MEAN_MOTION_DDOT":"0.0000000000000","RA_OF_ASC_NODE":"251.7131","RCS_SIZE":"LARGE"},{"MEAN_MOTION":"15.08826137","OBJECT_TYPE":"PAYLOAD","MEAN_MOTION_DOT":"0.00003197","ARG_OF_PERICENTER":"39.8239","APOAPSIS":"541.319","NORAD_CAT_ID":"53700","SITE":"AFETR","PERIAPSIS":"538.256","TIME_SYSTEM":"UTC","REF_FRAME":"TEME","COUNTRY_CODE":"US","CENTER_NAME":"EARTH","MEAN_MOTION_DDOT":"0.0000000000000","RCS_SIZE":"LARGE","RA_OF_ASC_NODE":"32.8959","CLASSIFICATION_TYPE":"U","MEAN_ELEMENT_THEORY":"SGP4","DECAY_DATE":null,"SEMIMAJOR_AXIS":"6917.923","LAUNCH_DATE":"2022-09-05","TLE_LINE2":"2 53700  53.2195  32.8959 0002214  39.8239 320.2915 15.08826137 20354","PERIOD":"95.438","ECCENTRICITY":"0.00022140","BSTAR":"0.00021893000000","GP_ID":"222500999","FILE":"3736460","OBJECT_NAME":"STARLINK-4725","ELEMENT_SET_NO":"999","OBJECT_ID":"2022-107A","TLE_LINE1":"1 53700U 22107A   23008.76420048  .00003197  00000-0  21893-3 0  9997","MEAN_ANOMALY":"320.2915","EPHEMERIS_TYPE":"0","EPOCH":"2023-01-08T18:20:26.921472","INCLINATION":"53.2195","REV_AT_EPOCH":"2035"},{"COUNTRY_CODE":"US","PERIAPSIS":"538.331","TIME_SYSTEM":"UTC","REF_FRAME":"TEME","APOAPSIS":"541.197","NORAD_CAT_ID":"53701","MEAN_MOTION_DOT":"0.00001920","OBJECT_TYPE":"PAYLOAD","ARG_OF_PERICENTER":"33.9656","SITE":"AFETR","MEAN_MOTION":"15.08833941","EPOCH":"2023-01-08T18:15:08.459712","INCLINATION":"53.2185","REV_AT_EPOCH":"2035","TLE_LINE1":"1 53701U 22107B   23008.76051458  .00001920  00000-0  13871-3 0  9992","ELEMENT_SET_NO":"999","OBJECT_ID":"2022-107B","EPHEMERIS_TYPE":"0","MEAN_ANOMALY":"326.1469","LAUNCH_DATE":"2022-09-05","TLE_LINE2":"2 53701  53.2185  32.8680 0002071  33.9656 326.1469 15.08833941 20354","ECCENTRICITY":"0.00020710","PERIOD":"95.438","BSTAR":"0.00013871000000","FILE":"3736460","GP_ID":"222501229","OBJECT_NAME":"STARLINK-4711","MEAN_MOTION_DDOT":"0.0000000000000","CENTER_NAME":"EARTH","RA_OF_ASC_NODE":"32.8680","RCS_SIZE":"LARGE","SEMIMAJOR_AXIS":"6917.899","DECAY_DATE":null,"CLASSIFICATION_TYPE":"U","MEAN_ELEMENT_THEORY":"SGP4"},{"MEAN_MOTION":"15.08810907","APOAPSIS":"540.957","NORAD_CAT_ID":"53702","MEAN_MOTION_DOT":"-0.00016188","OBJECT_TYPE":"PAYLOAD","ARG_OF_PERICENTER":"55.1108","SITE":"AFETR","PERIAPSIS":"538.712","TIME_SYSTEM":"UTC","REF_FRAME":"TEME","COUNTRY_CODE":"US","MEAN_MOTION_DDOT":"0.0000000000000","CENTER_NAME":"EARTH","RCS_SIZE":"LARGE","RA_OF_ASC_NODE":"17.7249","DECAY_DATE":null,"SEMIMAJOR_AXIS":"6917.969","CLASSIFICATION_TYPE":"U","MEAN_ELEMENT_THEORY":"SGP4","LAUNCH_DATE":"2022-09-05","TLE_LINE2":"2 53702  53.2148  17.7249 0001623  55.1108 170.7577 15.08810907  1301","PERIOD":"95.439","ECCENTRICITY":"0.00016230","BSTAR":"-0.00100210000000","OBJECT_NAME":"STARLINK-4724","GP_ID":"222501459","FILE":"3736460","TLE_LINE1":"1 53702U 22107C   23008.91667824 -.00016188  00000-0 -10021-2 0  9997","ELEMENT_SET_NO":"999","OBJECT_ID":"2022-107C","EPHEMERIS_TYPE":"0","MEAN_ANOMALY":"170.7577","EPOCH":"2023-01-08T22:00:00.999936","INCLINATION":"53.2148","REV_AT_EPOCH":"130"},{"MEAN_MOTION":"15.08830329","SITE":"AFETR","APOAPSIS":"541.270","NORAD_CAT_ID":"53703","MEAN_MOTION_DOT":"0.00000457","OBJECT_TYPE":"PAYLOAD","ARG_OF_PERICENTER":"39.6965","REF_FRAME":"TEME","PERIAPSIS":"538.280","TIME_SYSTEM":"UTC","COUNTRY_CODE":"US","SEMIMAJOR_AXIS":"6917.910","DECAY_DATE":null,"CLASSIFICATION_TYPE":"U","MEAN_ELEMENT_THEORY":"SGP4","CENTER_NAME":"EARTH","MEAN_MOTION_DDOT":"0.0000000000000","RA_OF_ASC_NODE":"32.9725","RCS_SIZE":"LARGE","BSTAR":"0.00004686000000","FILE":"3736460","GP_ID":"222500311","OBJECT_NAME":"STARLINK-4731","LAUNCH_DATE":"2022-09-05","TLE_LINE2":"2 53703  53.2194  32.9725 0002161  39.6965 320.4185 15.08830329 20352","PERIOD":"95.438","ECCENTRICITY":"0.00021610","EPHEMERIS_TYPE":"0","MEAN_ANOMALY":"320.4185","TLE_LINE1":"1 53703U 22107D   23008.77622226  .00000457  00000-0  46860-4 0  9991","ELEMENT_SET_NO":"999","OBJECT_ID":"2022-107D","INCLINATION":"53.2194","REV_AT_EPOCH":"2035","EPOCH":"2023-01-08T18:37:45.603264"}];
